NORAD_CAT_ID,OBJECT_NAME,OBJECT_TYPE,EPOCH,MEAN_MOTION,ECCENTRICITY,INCLINATION,RA_OF_ASC_NODE,ARG_OF_PERICENTER,MEAN_ANOMALY,BSTAR,MEAN_MOTION_DOT,MEAN_MOTION_DDOT,TLE_LINE0,TLE_LINE1,TLE_LINE2,SEMIMAJOR_AXIS,PERIOD,APOGEE,PERIGEE,DECAYED
52358.0,STARLINK-3837,PAYLOAD,2023-10-01 07:55:43,15.08843179,0.0001243,53.2154,236.0986,89.5653,270.5481,0.00010131,1.325e-05,0.0,0 STARLINK-3837,1 52358U 22045AD  23274.33036080  .00001325  00000-0  10131-3 0  9997,2 52358  53.2154 236.0986 0001243  89.5653 270.5481 15.08843179 81377,6917.871,95.437,540.596,538.876,0.0
52358.0,STARLINK-3837,PAYLOAD,2023-10-01 14:17:15,15.08837878,0.0001067,53.2144,234.9084,90.2366,269.8749,4.0687e-05,3.6e-06,0.0,0 STARLINK-3837,1 52358U 22045AD  23274.59532280  .00000360  00000-0  40687-4 0  9996,2 52358  53.2144 234.9084 0001067  90.2366 269.8749 15.08837878 81418,6917.887,95.438,540.49,539.014,0.0
52358.0,STARLINK-3837,PAYLOAD,2023-10-02 07:46:30,15.0885676,0.000129,53.2153,231.64,93.5844,266.5295,0.00073109,0.00011372,0.0,0 STARLINK-3837,1 52358U 22045AD  23275.32396136  .00011372  00000-0  73109-3 0  9995,2 52358  53.2153 231.6400 0001290  93.5844 266.5295 15.08856760 81522,6917.829,95.436,540.587,538.802,0.0
52358.0,STARLINK-3837,PAYLOAD,2023-10-02 14:08:03,15.08845215,0.0001376,53.2149,230.4479,84.8076,275.3073,0.00036316,5.497e-05,0.0,0 STARLINK-3837,1 52358U 22045AD  23275.58892473  .00005497  00000-0  36316-3 0  9998,2 52358  53.2149 230.4479 0001376  84.8076 275.3073 15.08845215 81564,6917.864,95.437,540.681,538.778,0.0
52358.0,STARLINK-3837,PAYLOAD,2023-10-03 13:58:50,15.08837658,0.0001564,53.2165,225.9894,84.7827,275.3343,6.5179e-05,7.49e-06,0.0,0 STARLINK-3837,1 52358U 22045AD  23276.58252692  .00000749  00000-0  65179-4 0  9997,2 52358  53.2165 225.9894 0001564  84.7827 275.3343 15.08837658 81713,6917.888,95.438,540.835,538.671,0.0
52358.0,STARLINK-3837,PAYLOAD,2023-10-04 05:52:41,15.08840015,0.0001642,53.2171,223.0148,83.4105,276.7074,0.00016971,2.414e-05,0.0,0 STARLINK-3837,1 52358U 22045AD  23277.24492933  .00002414  00000-0  16971-3 0  9991,2 52358  53.2171 223.0148 0001642  83.4105 276.7074 15.08840015 81811,6917.88,95.438,540.881,538.609,0.0
52358.0,STARLINK-3837,PAYLOAD,2023-10-05 02:32:42,15.08847912,0.0001248,53.2158,219.149,101.5628,258.5504,0.0003503,5.293e-05,0.0,0 STARLINK-3837,1 52358U 22045AD  23278.10604629  .00005293  00000-0  35030-3 0  9999,2 52358  53.2158 219.1490 0001248 101.5628 258.5504 15.08847912 81949,6917.856,95.437,540.585,538.858,0.0
52358.0,STARLINK-3837,PAYLOAD,2023-10-05 05:43:28,15.08865673,0.0001634,53.2154,218.5549,99.9527,260.165,0.0007658,0.00011929,0.0,0 STARLINK-3837,1 52358U 22045AD  23278.23852202  .00011929  00000-0  76580-3 0  9993,2 52358  53.2154 218.5549 0001634  99.9527 260.1650 15.08865673 81967,6917.802,95.436,540.797,538.537,0.0
52358.0,STARLINK-3837,PAYLOAD,2023-10-05 13:40:24,15.08838222,0.0002224,53.2151,217.0689,87.8828,272.2419,-7.4859e-06,-4.07e-06,0.0,0 STARLINK-3837,1 52358U 22045AD  23278.56973172 -.00000407  00000-0 -74859-5 0  9999,2 52358  53.2151 217.0689 0002224  87.8828 272.2419 15.08838222 82013,6917.886,95.438,541.289,538.212,0.0
52358.0,STARLINK-3837,PAYLOAD,2023-10-06 05:34:15,15.08850201,0.0001489,53.2159,214.0919,109.5514,250.5639,0.00040128,6.106e-05,0.0,0 STARLINK-3837,1 52358U 22045AD  23279.23212521  .00006106  00000-0  40128-3 0  9998,2 52358  53.2159 214.0919 0001489 109.5514 250.5639 15.08850201 82115,6917.849,95.437,540.744,538.684,0.0
52358.0,STARLINK-3837,PAYLOAD,2023-10-07 00:38:54,15.08834839,0.0001359,53.2159,210.5263,99.6503,260.4643,0.00026593,3.946e-05,0.0,0 STARLINK-3837,1 52358U 22045AD  23280.02701413  .00003946  00000-0  26593-3 0  9999,2 52358  53.2159 210.5263 0001359  99.6503 260.4643 15.08834839 82238,6917.896,95.438,540.701,538.821,0.0
52358.0,STARLINK-3837,PAYLOAD,2023-10-07 05:25:03,15.08841387,0.0001463,53.2164,209.6325,97.9714,262.1444,0.00047983,7.357e-05,0.0,0 STARLINK-3837,1 52358U 22045AD  23280.22573388  .00007357  00000-0  47983-3 0  9995,2 52358  53.2164 209.6325 0001463  97.9714 262.1444 15.08841387 82260,6917.876,95.437,540.753,538.729,0.0
52358.0,STARLINK-3837,PAYLOAD,2023-10-07 19:43:31,15.08840684,0.0001284,53.2157,206.9547,108.3973,251.7159,0.00039054,5.933e-05,0.0,0 STARLINK-3837,1 52358U 22045AD  23280.82189514  .00005933  00000-0  39054-3 0  9993,2 52358  53.2157 206.9547 0001284 108.3973 251.7159 15.08840684 82359,6917.878,95.438,540.632,538.855,0.0
52358.0,STARLINK-3837,PAYLOAD,2023-10-08 02:05:03,15.08867198,0.0001237,53.2153,205.7688,92.0417,268.0717,0.00088006,0.00013756,0.0,0 STARLINK-3837,1 52358U 22045AD  23281.08685145  .00013756  00000-0  88006-3 0  9996,2 52358  53.2153 205.7688 0001237  92.0417 268.0717 15.08867198 82392,6917.797,95.436,540.518,538.807,0.0
52358.0,STARLINK-3837,PAYLOAD,2023-10-08 11:37:22,15.08864456,0.0001371,53.217,203.9829,83.6565,276.4584,0.00063842,9.894e-05,0.0,0 STARLINK-3837,1 52358U 22045AD  23281.48428763  .00009894  00000-0  63842-3 0  9990,2 52358  53.2170 203.9829 0001371  83.6565 276.4584 15.08864456 82453,6917.806,95.436,540.619,538.722,0.0
52358.0,STARLINK-3837,PAYLOAD,2023-10-08 19:34:18,15.08860214,0.0002945,53.2158,202.4975,76.8976,283.2345,0.00081925,0.00012782,0.0,0 STARLINK-3837,1 52358U 22045AD  23281.81549140  .00012782  00000-0  81925-3 0  9992,2 52358  53.2158 202.4975 0002945  76.8976 283.2345 15.08860214 82508,6917.819,95.436,541.721,537.646,0.0
52358.0,STARLINK-3837,PAYLOAD,2023-10-09 01:55:50,15.08859599,0.0001627,53.2162,201.3116,91.8072,268.3107,0.00078325,0.00012206,0.0,0 STARLINK-3837,1 52358U 22045AD  23282.08044762  .00012206  00000-0  78325-3 0  9993,2 52358  53.2162 201.3116 0001627  91.8072 268.3107 15.08859599 82546,6917.82,95.436,540.811,538.56,0.0
52358.0,STARLINK-3837,PAYLOAD,2023-10-09 11:28:09,15.08853881,0.0002127,53.216,199.5239,85.643,274.4805,0.00068599,0.0001065,0.0,0 STARLINK-3837,1 52358U 22045AD  23282.47788971  .00010650  00000-0  68599-3 0  9996,2 52358  53.2160 199.5239 0002127  85.6430 274.4805 15.08853881 82601,6917.838,95.437,541.174,538.232,0.0
52358.0,STARLINK-3837,PAYLOAD,2023-10-10 01:46:38,15.08844769,0.0001626,53.2153,196.8492,70.977,289.1398,0.0021672,0.00034376,0.0,0 STARLINK-3837,1 52358U 22045AD  23283.07405591  .00034376  00000-0  21672-2 0  9998,2 52358  53.2153 196.8492 0001626  70.9770 289.1398 15.08844769 82695,6917.866,95.437,540.856,538.606,0.0
52358.0,STARLINK-3837,PAYLOAD,2023-10-10 11:18:57,15.08849548,0.0001522,53.2154,195.0637,83.8664,276.2501,0.0016283,0.00025728,0.0,0 STARLINK-3837,1 52358U 22045AD  23283.47149718  .00025728  00000-0  16283-2 0  9991,2 52358  53.2154 195.0637 0001522  83.8664 276.2501 15.08849548 82758,6917.851,95.437,540.769,538.663,0.0
52358.0,STARLINK-3837,PAYLOAD,2023-10-11 01:37:25,15.0885068,0.0001713,53.2157,192.3894,89.152,270.9668,0.0015924,0.00025153,0.0,0 STARLINK-3837,1 52358U 22045AD  23284.06766002  .00025153  00000-0  15924-2 0  9991,2 52358  53.2157 192.3894 0001713  89.1520 270.9668 15.08850680 82842,6917.848,95.437,540.898,538.528,0.0
52358.0,STARLINK-3837,PAYLOAD,2023-10-11 11:09:44,15.08847914,0.0001861,53.2148,190.6045,81.811,278.3093,0.0011124,0.00017464,0.0,0 STARLINK-3837,1 52358U 22045AD  23284.46510131  .00017464  00000-0  11124-2 0  9999,2 52358  53.2148 190.6045 0001861  81.8110 278.3093 15.08847914 82906,6917.856,95.437,541.009,538.434,0.0
52358.0,STARLINK-3837,PAYLOAD,2023-10-12 03:03:36,15.08857934,0.0001126,53.2152,187.6305,88.0134,272.0987,0.0024027,0.00038177,0.0,0 STARLINK-3837,1 52358U 22045AD  23285.12750039  .00038177  00000-0  24027-2 0  9996,2 52358  53.2152 187.6305 0001126  88.0134 272.0987 15.08857934 83003,6917.826,95.436,540.47,538.912,0.0
52358.0,STARLINK-3837,PAYLOAD,2023-10-12 22:08:13,15.08860869,9.27e-05,53.2158,184.0618,115.1169,244.992,0.0021443,0.00034023,0.0,0 STARLINK-3837,1 52358U 22045AD  23285.92238236  .00034023  00000-0  21443-2 0  9999,2 52358  53.2158 184.0618 0000927 115.1169 244.9920 15.08860869 83124,6917.817,95.436,540.323,539.04,0.0
52358.0,STARLINK-3837,PAYLOAD,2023-10-13 02:54:23,15.08845738,0.0001112,53.2163,183.1709,79.2779,280.8338,0.00054347,8.373e-05,0.0,0 STARLINK-3837,1 52358U 22045AD  23286.12110388  .00008373  00000-0  54347-3 0  9998,2 52358  53.2163 183.1709 0001112  79.2779 280.8338 15.08845738 83158,6917.863,95.437,540.497,538.959,0.0
52358.0,STARLINK-3837,PAYLOAD,2023-10-13 20:23:37,15.08850424,0.000118,53.2168,179.8988,82.8294,277.2832,0.00059144,9.14e-05,0.0,0 STARLINK-3837,1 52358U 22045AD  23286.84974283  .00009140  00000-0  59144-3 0  9992,2 52358  53.2168 179.8988 0001180  82.8294 277.2832 15.08850424 83260,6917.849,95.437,540.53,538.897,0.0
52358.0,STARLINK-3837,PAYLOAD,2023-10-13 21:59:00,15.08854267,0.00012,53.2174,179.6011,86.7841,273.3289,0.00060116,9.296e-05,0.0,0 STARLINK-3837,1 52358U 22045AD  23286.91598129  .00009296  00000-0  60116-3 0  9994,2 52358  53.2174 179.6011 0001200  86.7841 273.3289 15.08854267 83279,6917.837,95.437,540.532,538.872,0.0
52358.0,STARLINK-3837,PAYLOAD,2023-10-14 02:45:09,15.08870723,0.0001276,53.2172,178.7058,99.2154,260.8982,0.0011548,0.00018154,0.0,0 STARLINK-3837,1 52358U 22045AD  23287.11469602  .00018154  00000-0  11548-2 0  9997,2 52358  53.2172 178.7058 0001276  99.2154 260.8982 15.08870723 83307,6917.786,95.436,540.534,538.769,0.0
52358.0,STARLINK-3837,PAYLOAD,2023-10-14 20:14:24,15.0883958,0.0001422,53.217,175.4338,95.8175,264.2979,0.00012856,1.759e-05,0.0,0 STARLINK-3837,1 52358U 22045AD  23287.84334329  .00001759  00000-0  12856-3 0  9991,2 52358  53.2170 175.4338 0001422  95.8175 264.2979 15.08839580 83410,6917.882,95.438,540.73,538.763,0.0
52358.0,STARLINK-3837,PAYLOAD,2023-10-14 21:49:48,15.08835884,0.0001409,53.217,175.1394,88.0913,272.0241,3.8543e-05,3.25e-06,0.0,0 STARLINK-3837,1 52358U 22045AD  23287.90958440  .00000325  00000-0  38543-4 0  9994,2 52358  53.2170 175.1394 0001409  88.0913 272.0241 15.08835884 83421,6917.893,95.438,540.733,538.783,0.0
